NORAD_CAT_ID,OBJECT_NAME,OBJECT_TYPE,EPOCH,MEAN_MOTION,ECCENTRICITY,INCLINATION,RA_OF_ASC_NODE,ARG_OF_PERICENTER,MEAN_ANOMALY,BSTAR,MEAN_MOTION_DOT,MEAN_MOTION_DDOT,TLE_LINE0,TLE_LINE1,TLE_LINE2,SEMIMAJOR_AXIS,PERIOD,APOGEE,PERIGEE,DECAYED
53418.0,STARLINK-4481,PAYLOAD,2024-01-28 03:35:44,15.08841778,0.0002433,53.2203,327.2666,47.7895,312.3303,4.0344e-06,-2.24e-06,0.0,0 STARLINK-4481,1 53418U 22097AG  24028.14982132 -.00000224  00000-0  40344-5 0  9996,2 53418  53.2203 327.2666 0002433  47.7895 312.3303 15.08841778 81836,6917.875,95.437,541.423,538.057,0.0
53418.0,STARLINK-4481,PAYLOAD,2024-01-28 05:11:07,15.08844915,0.0002182,53.2204,326.9625,51.7922,308.3266,5.1818e-06,-2.06e-06,0.0,0 STARLINK-4481,1 53418U 22097AG  24028.21605777 -.00000206  00000-0  51818-5 0  9999,2 53418  53.2204 326.9625 0002182  51.7922 308.3266 15.08844915 82330,6917.865,95.437,541.24,538.221,0.0
53418.0,STARLINK-4481,PAYLOAD,2024-01-29 05:01:54,15.08840841,0.0001637,53.2204,322.4986,81.7745,278.3433,2.6467e-06,-2.46e-06,0.0,0 STARLINK-4481,1 53418U 22097AG  24029.20966067 -.00000246  00000-0  26467-5 0  9997,2 53418  53.2204 322.4986 0001637  81.7745 278.3433 15.08840841 81998,6917.878,95.438,540.875,538.61,0.0
53418.0,STARLINK-4481,PAYLOAD,2024-01-30 04:52:41,15.08842958,0.0001427,53.2189,318.0418,83.1462,276.9693,0.00016848,2.395e-05,0.0,0 STARLINK-4481,1 53418U 22097AG  24030.20325719  .00002395  00000-0  16848-3 0  9998,2 53418  53.2189 318.0418 0001427  83.1462 276.9693 15.08842958 82635,6917.871,95.437,540.724,538.749,0.0
53418.0,STARLINK-4481,PAYLOAD,2024-01-30 22:21:56,15.08836299,0.0001531,53.2187,314.7704,95.7913,264.3254,1.4817e-05,-5.2e-07,0.0,0 STARLINK-4481,1 53418U 22097AG  24030.93190615 -.00000052  00000-0  14817-4 0  9997,2 53418  53.2187 314.7704 0001531  95.7913 264.3254 15.08836299 82747,6917.892,95.438,540.816,538.698,0.0
53418.0,STARLINK-4481,PAYLOAD,2024-01-31 01:32:42,15.08837678,0.0001619,53.2188,314.1759,84.2318,275.8859,2.1498e-05,5.4e-07,0.0,0 STARLINK-4481,1 53418U 22097AG  24031.06438563  .00000054  00000-0  21498-4 0  9993,2 53418  53.2188 314.1759 0001619  84.2318 275.8859 15.08837678 82279,6917.887,95.438,540.872,538.632,0.0
53418.0,STARLINK-4481,PAYLOAD,2024-01-31 19:01:57,15.08833582,0.0001615,53.2185,310.9026,90.9487,269.169,3.7486e-05,3.09e-06,0.0,0 STARLINK-4481,1 53418U 22097AG  24031.79302733  .00000309  00000-0  37486-4 0  9999,2 53418  53.2185 310.9026 0001615  90.9487 269.1690 15.08833582 82879,6917.9,95.438,540.882,538.648,0.0
53418.0,STARLINK-4481,PAYLOAD,2024-01-31 23:48:06,15.08842413,0.0001651,53.2191,310.0198,98.2559,261.862,-2.8396e-05,-7.4e-06,0.0,0 STARLINK-4481,1 53418U 22097AG  24031.99174557 -.00000740  00000-0 -28396-4 0  9993,2 53418  53.2191 310.0198 0001651  98.2559 261.8620 15.08842413 82907,6917.873,95.437,540.88,538.596,0.0
53418.0,STARLINK-4481,PAYLOAD,2024-02-01 18:52:44,15.08835282,0.0001714,53.2192,306.4548,100.9761,259.1424,6.782e-05,7.91e-06,0.0,0 STARLINK-4481,1 53418U 22097AG  24032.78662884  .00000791  00000-0  67820-4 0  9995,2 53418  53.2192 306.4548 0001714 100.9761 259.1424 15.08835282 82539,6917.895,95.438,540.946,538.574,0.0
53418.0,STARLINK-4481,PAYLOAD,2024-02-02 01:14:17,15.08835498,0.0001623,53.2186,305.2651,96.7915,263.3262,5.9054e-05,6.52e-06,0.0,0 STARLINK-4481,1 53418U 22097AG  24033.05158988  .00000652  00000-0  59054-4 0  9997,2 53418  53.2186 305.2651 0001623  96.7915 263.3262 15.08835498 83061,6917.894,95.438,540.882,538.636,0.0
53418.0,STARLINK-4481,PAYLOAD,2024-02-02 21:54:18,15.08834681,0.000166,53.2189,301.3995,100.989,259.1289,2.9783e-05,1.86e-06,0.0,0 STARLINK-4481,1 53418U 22097AG  24033.91271435  .00000186  00000-0  29783-4 0  9993,2 53418  53.2189 301.3995 0001660 100.9890 259.1289 15.08834681 83192,6917.897,95.438,540.91,538.613,0.0
53418.0,STARLINK-4481,PAYLOAD,2024-02-03 02:40:27,15.08837796,0.0001659,53.2188,300.5076,99.2578,260.8602,5.3579e-05,5.65e-06,0.0,0 STARLINK-4481,1 53418U 22097AG  24034.11143228  .00000565  00000-0  53579-4 0  9995,2 53418  53.2188 300.5076 0001659  99.2578 260.8602 15.08837796 82730,6917.887,95.438,540.9,538.604,0.0
53418.0,STARLINK-4481,PAYLOAD,2024-02-03 21:45:05,15.08839284,0.0001643,53.2185,296.9393,99.2342,260.8836,7.5413e-05,9.12e-06,0.0,0 STARLINK-4481,1 53418U 22097AG  24034.90631181  .00000912  00000-0  75413-4 0  9999,2 53418  53.2185 296.9393 0001643  99.2342 260.8836 15.08839284 83340,6917.883,95.438,540.884,538.611,0.0
53418.0,STARLINK-4481,PAYLOAD,2024-02-04 00:55:51,15.08841341,0.0001573,53.2179,296.3438,95.3482,264.7689,8.6955e-05,1.096e-05,0.0,0 STARLINK-4481,1 53418U 22097AG  24035.03879029  .00001096  00000-0  86955-4 0  9996,2 53418  53.2179 296.3438 0001573  95.3482 264.7689 15.08841341 83369,6917.876,95.437,540.829,538.653,0.0
53418.0,STARLINK-4481,PAYLOAD,2024-02-04 21:35:52,15.08841778,0.0001524,53.2174,292.4773,92.5615,267.5551,5.4237e-05,5.75e-06,0.0,0 STARLINK-4481,1 53418U 22097AG  24035.89991179  .00000575  00000-0  54237-4 0  9990,2 53418  53.2174 292.4773 0001524  92.5615 267.5551 15.08841778 83000,6917.875,95.437,540.794,538.686,0.0
53418.0,STARLINK-4481,PAYLOAD,2024-02-05 10:18:57,15.08847388,0.0001569,53.2173,290.099,78.5337,281.5831,6.0036e-05,6.68e-06,0.0,0 STARLINK-4481,1 53418U 22097AG  24036.42982786  .00000668  00000-0  60036-4 0  9991,2 53418  53.2173 290.0990 0001569  78.5337 281.5831 15.08847388 83570,6917.858,95.437,540.808,538.637,0.0
53418.0,STARLINK-4481,PAYLOAD,2024-02-05 21:26:39,15.08843968,0.0001546,53.217,288.0166,84.1022,276.0146,4.2435e-05,3.87e-06,0.0,0 STARLINK-4481,1 53418U 22097AG  24036.89350925  .00000387  00000-0  42435-4 0  9997,2 53418  53.2170 288.0166 0001546  84.1022 276.0146 15.08843968 83644,6917.868,95.437,540.803,538.664,0.0
53418.0,STARLINK-4481,PAYLOAD,2024-02-06 02:12:47,15.08851537,0.0001421,53.2167,287.1196,100.5844,259.5309,5.075e-05,5.2e-06,0.0,0 STARLINK-4481,1 53418U 22097AG  24037.09222195  .00000520  00000-0  50750-4 0  9995,2 53418  53.2167 287.1196 0001421 100.5844 259.5309 15.08851537 83187,6917.845,95.437,540.693,538.727,0.0
53418.0,STARLINK-4481,PAYLOAD,2024-02-06 19:42:02,15.08846621,0.0001604,53.2178,283.8457,112.163,247.9532,-2.9957e-05,-7.65e-06,0.0,0 STARLINK-4481,1 53418U 22097AG  24037.82086586 -.00000765  00000-0 -29957-4 0  9996,2 53418  53.2178 283.8457 0001604 112.1630 247.9532 15.08846621 83296,6917.86,95.437,540.835,538.616,0.0
53418.0,STARLINK-4481,PAYLOAD,2024-02-06 22:52:48,15.08847606,0.000165,53.2183,283.2512,114.9858,245.1305,-2.8288e-05,-7.38e-06,0.0,0 STARLINK-4481,1 53418U 22097AG  24037.95334461 -.00000738  00000-0 -28288-4 0  9994,2 53418  53.2183 283.2512 0001650 114.9858 245.1305 15.08847606 83800,6917.857,95.437,540.864,538.581,0.0
53418.0,STARLINK-4481,PAYLOAD,2024-02-07 02:03:35,15.08847463,0.0001657,53.2182,282.6562,115.4452,244.6712,-1.5194e-05,-5.3e-06,0.0,0 STARLINK-4481,1 53418U 22097AG  24038.08582354 -.00000530  00000-0 -15194-4 0  9997,2 53418  53.2182 282.6562 0001657 115.4452 244.6712 15.08847463 83829,6917.858,95.437,540.869,538.576,0.0
53418.0,STARLINK-4481,PAYLOAD,2024-02-07 19:32:50,15.08838411,0.0001606,53.2169,279.3833,121.4135,238.7014,-1.7091e-05,-5.6e-06,0.0,0 STARLINK-4481,1 53418U 22097AG  24038.81446928 -.00000560  00000-0 -17091-4 0  9995,2 53418  53.2169 279.3833 0001606 121.4135 238.7014 15.08838411 83447,6917.885,95.438,540.861,538.639,0.0
53418.0,STARLINK-4481,PAYLOAD,2024-02-07 22:43:36,15.08837365,0.0001376,53.2173,278.7977,94.3128,265.8021,1.2752e-05,-8.5e-07,0.0,0 STARLINK-4481,1 53418U 22097AG  24038.94695123 -.00000085  00000-0  12752-4 0  9992,2 53418  53.2173 278.7977 0001376  94.3128 265.8021 15.08837365 83950,6917.888,95.438,540.705,538.802,0.0
53418.0,STARLINK-4481,PAYLOAD,2024-02-08 22:34:23,15.08838646,0.0001229,53.2162,274.3321,90.9555,269.1577,-2.157e-05,-6.31e-06,0.0,0 STARLINK-4481,1 53418U 22097AG  24039.94055464 -.00000631  00000-0 -21570-4 0  9997,2 53418  53.2162 274.3321 0001229  90.9555 269.1577 15.08838646 84100,6917.885,95.438,540.6,538.899,0.0
53418.0,STARLINK-4481,PAYLOAD,2024-02-10 01:35:57,15.08835193,0.0001344,53.2164,269.2791,95.7676,264.347,5.9409e-05,6.58e-06,0.0,0 STARLINK-4481,1 53418U 22097AG  24041.06663995  .00000658  00000-0  59409-4 0  9996,2 53418  53.2164 269.2791 0001344  95.7676 264.3470 15.08835193 83787,6917.895,95.438,540.69,538.83,0.0
53418.0,STARLINK-4481,PAYLOAD,2024-02-10 22:15:58,15.08843118,0.0001365,53.2165,265.4122,85.2413,274.8735,0.00013071,1.793e-05,0.0,0 STARLINK-4481,1 53418U 22097AG  24041.92775629  .00001793  00000-0  13071-3 0  9994,2 53418  53.2165 265.4122 0001365  85.2413 274.8735 15.08843118 84406,6917.871,95.437,540.68,538.792,0.0
53418.0,STARLINK-4481,PAYLOAD,2024-02-11 01:26:44,15.08845212,0.0001384,53.2166,264.8175,91.4229,268.6922,0.00014856,2.078e-05,0.0,0 STARLINK-4481,1 53418U 22097AG  24042.06023432  .00002078  00000-0  14856-3 0  9997,2 53418  53.2166 264.8175 0001384  91.4229 268.6922 15.08845212 83936,6917.864,95.437,540.687,538.772,0.0
53418.0,STARLINK-4481,PAYLOAD,2024-02-11 20:31:22,15.08843868,0.0001493,53.2169,261.2483,89.0096,271.1067,0.00010414,1.37e-05,0.0,0 STARLINK-4481,1 53418U 22097AG  24042.85511609  .00001370  00000-0  10414-3 0  9992,2 53418  53.2169 261.2483 0001493  89.0096 271.1067 15.08843868 84056,6917.869,95.437,540.766,538.701,0.0
53418.0,STARLINK-4481,PAYLOAD,2024-02-11 22:06:45,15.08844744,0.0001496,53.2171,260.9506,84.754,275.3623,0.0001153,1.548e-05,0.0,0 STARLINK-4481,1 53418U 22097AG  24042.92135523  .00001548  00000-0  11530-3 0  9994,2 53418  53.2171 260.9506 0001496  84.7540 275.3623 15.08844744 84553,6917.866,95.437,540.766,538.696,0.0
53418.0,STARLINK-4481,PAYLOAD,2024-02-11 23:42:08,15.08846767,0.0001481,53.2171,260.6529,87.7632,272.353,0.00013394,1.845e-05,0.0,0 STARLINK-4481,1 53418U 22097AG  24042.98759290  .00001845  00000-0  13394-3 0  9993,2 53418  53.2171 260.6529 0001481  87.7632 272.3530 15.08846767 84566,6917.86,95.437,540.749,538.7,0.0
